satname,norad_id,inclination_deg,eccentricity,mean_motion_rev_per_day,perigee_km,apogee_km,l1,l2
STARLINK-1394,45679,53.0553,0.0001352,15.06382333,546.3293908322084,548.2020197237152,1 45679U 20035Y   25270.69519862 -.00004170  00000+0 -26134-3 0  9995,2 45679  53.0553  68.3270 0001352  80.9985 279.1157 15.06382333294304
STARLINK-1402,45685,53.0555,0.0001275,15.0641521,546.2819658735634,548.0479178687401,1 45685U 20035AE  25270.65962328  .00002083  00000+0  15863-3 0  9993,2 45685  53.0555  62.9098 0001275 100.3830 259.7303 15.06415210294387
STARLINK-1404,45686,53.0545,0.0001812,15.06368516,546.0531629006946,548.5629441881001,1 45686U 20035AF  25270.65468907 -.00003802  00000+0 -23670-3 0  9995,2 45686  53.0545  68.5132 0001812  33.1979 326.9123 15.06368516294307
STARLINK-1413,45689,53.0548,0.0001267,15.06400431,546.3327954907409,548.0876784805941,1 45689U 20035AJ  25270.80577800  .00003674  00000+0  26541-3 0  9993,2 45689  53.0548  67.8289 0001267 100.0167 260.0965 15.06400431294232
STARLINK-1417,45693,53.0559,0.0001241,15.06400288,546.3512396133983,548.0701109063975,1 45693U 20035AN  25270.66939895 -.00000025  00000+0  17186-4 0  9992,2 45693  53.0559  68.4485 0001241  75.6696 284.4431 15.06400288294294
STARLINK-1420,45695,53.0569,9.85e-05,15.06405898,546.5113364242989,547.8756265291504,1 45695U 20035AQ  25270.80298082  .00002199  00000+0  16641-3 0  9993,2 45695  53.0569  47.8349 0000985  94.2549 265.8553 15.06405898294600
STARLINK-1422,45696,53.0563,0.000114,15.06409825,546.3919595891684,547.9709321948312,1 45696U 20035AR  25270.81314885  .00001622  00000+0  12773-3 0  9997,2 45696  53.0563  67.8034 0001140  99.5835 260.5283 15.06409825294312
STARLINK-1351,45697,53.0565,0.0001238,15.06411645,546.31851418733,548.0332216534262,1 45697U 20035AS  25270.39109925  .00004663  00000+0  33161-3 0  9990,2 45697  53.0565  49.6920 0001238  81.6965 278.4164 15.06411645294545
STARLINK-1398,45699,53.0534,0.000295,15.44108216,431.99008364981364,436.00924428155304,1 45699U 20035AU  25270.59585498  .00037539  00000+0  81283-3 0  9993,2 45699  53.0534  18.1727 0002950 188.0488 172.0471 15.44108216295004
STARLINK-1400,45700,53.0556,0.0001262,15.06429642,546.2467434440741,547.9946784903213,1 45700U 20035AV  25270.76339750  .00012670  00000+0  86728-3 0  9991,2 45700  53.0556  48.0249 0001262  83.9329 276.1804 15.06429642294590
STARLINK-1403,45701,53.055,7.79e-05,15.06422578,546.602881222203,547.6818397465668,1 45701U 20035AW  25270.66020157  .00017466  00000+0  11878-2 0  9990,2 45701  53.0550  48.4867 0000779 101.2434 258.8642 15.06422578294574
STARLINK-1407,45703,53.0448,0.0008789,15.35688297,452.8677756936604,464.8858785990187,1 45703U 20035AY  25270.69798358  .00024706  00000+0  70953-3 0  9995,2 45703  53.0448  14.5133 0008789 272.2672  87.7323 15.35688297295068
STARLINK-1411,45706,53.0549,8.62e-05,15.30600441,473.42902954850524,474.6103413610781,1 45706U 20035BB  25271.00003472  .00105837  00000+0  34912-2 0  9999,2 45706  53.0549  39.6362 0000862  34.2855  65.6564 15.30600441  5755
STARLINK-1423,45710,53.0565,0.0001253,15.06410227,546.3124715866725,548.0479560804606,1 45710U 20035BF  25270.68597753  .00002989  00000+0  21942-3 0  9991,2 45710  53.0565  48.3738 0001253  93.4584 266.6549 15.06410227294584
STARLINK-1433,45711,53.0557,0.0001359,15.06418756,546.2129270391033,548.095221153043,1 45711U 20035BG  25270.66755022  .00007492  00000+0  52106-3 0  9995,2 45711  53.0557  48.4540 0001359  76.3035 283.8106 15.06418756294570
STARLINK-1434,45712,53.0538,0.000165,15.12117091,528.6049271036454,530.8845280737487,1 45712U 20035BH  25270.66587408  .00057308  00000+0  32796-2 0  9990,2 45712  53.0538  46.3926 0001650 124.5038 235.6109 15.12117091294616
STARLINK-1465,45731,53.0531,0.000143,15.06395875,546.2338738463468,548.2145271496893,1 45731U 20038B   25270.56804421  .00001348  00000+0  10938-3 0  9998,2 45731  53.0531 248.9002 0001430  92.3155 267.7998 15.06395875291602
STARLINK-1471,45735,53.0508,0.0003825,15.39083913,446.2056721547824,451.4282919510524,1 45735U 20038F   25271.19656616  .00034152  00000+0  87495-3 0  9994,2 45735  53.0508 194.2677 0003825  82.9020 277.2418 15.39083913292435
STARLINK-1474,45738,53.0387,0.0006278,15.61306082,379.6381573956387,388.12855015183595,1 45738U 20038J   25270.97935982  .00074689  00000+0  86033-3 0  9994,2 45738  53.0387 158.4941 0006278 140.8918 219.2550 15.61306082292910
STARLINK-1475,45739,53.0526,0.0007354,15.61643289,377.93782553943583,387.8819733191158,1 45739U 20038K   25271.25003472  .00151254  00000+0  16971-2 0  9994,2 45739  53.0526 124.8877 0007354 114.5564  69.2365 15.61643289  5936
STARLINK-1480,45741,53.0545,0.000165,15.06408126,546.0439746278407,548.3293314333405,1 45741U 20038M   25271.21307057  .00002307  00000+0  17370-3 0  9998,2 45741  53.0545 246.0059 0001650 101.9562 258.1613 15.06408126291716
STARLINK-1500,45744,53.0378,0.0005519,15.25642018,485.06835863121796,492.64814799182477,1 45744U 20038Q   25271.04566153  .00029754  00000+0  11627-2 0  9999,2 45744  53.0378 230.3551 0005519  91.2820 268.8809 15.25642018291910
STARLINK-1504,45746,53.0286,0.0006654,15.35669745,454.3825054397421,463.481276719991,1 45746U 20038S   25271.23254063  .00045698  00000+0  13009-2 0  9997,2 45746  53.0286 196.7858 0006654  66.2401 293.9298 15.35669745292394
STARLINK-1506,45747,53.0529,0.0004876,15.19868383,502.8812108384873,509.5948533697965,1 45747U 20038T   25271.26526334  .00012194  00000+0  57507-3 0  9991,2 45747  53.0529 230.3988 0004876 111.9954 248.1560 15.19868383291933
STARLINK-1464,45751,53.0537,0.0001772,15.06407495,545.9614192439922,548.415754632003,1 45751U 20038X   25271.14857850  .00005309  00000+0  37494-3 0  9996,2 45751  53.0537 226.2929 0001772  93.0199 267.0993 15.06407495291983
STARLINK-1477,45754,53.0527,0.0001642,15.06413123,546.0342024961956,548.3084737544359,1 45754U 20038AA  25271.03062185  .00005505  00000+0  38801-3 0  9997,2 45754  53.0527 226.8218 0001642  90.4111 269.7066 15.06413123291966
STARLINK-1478,45755,53.0549,0.0001495,15.06401031,546.1730589365588,548.2437372105824,1 45755U 20038AB  25271.11540180  .00000888  00000+0  78524-4 0  9999,2 45755  53.0549 226.4454 0001495  90.7930 269.3230 15.06401031291961
STARLINK-1484,45756,53.0165,0.0005534,15.54302938,400.4263257703933,407.93299384947204,1 45756U 20038AC  25270.89168729  .00086304  00000+0  12896-2 0  9994,2 45756  53.0165 145.4062 0005534 110.2190 249.9414 15.54302938293087
